{"type": "FeatureCollection", "features": [ {"type": "Feature", "properties": {"norad_id": 34058, "name": "COSMOS 2251 DEB", "group": "cosmos-2251-debris", "lat": -6.561887491347985, "lon": -12.890055012406158, "alt_km": 802.8416661855008, "timestamp": "2025-12-20T16:47:36.678419+00:00", "meta": {"OBJECT_NAME": "COSMOS 2251 DEB", "OBJECT_ID": "1993-036JV", "EPOCH": "2025-12-20T10:43:09.746976", "MEAN_MOTION": 13.56087377, "ECCENTRICITY": 0.0377615, "INCLINATION": 73.9314, "RA_OF_ASC_NODE": 165.6202, "ARG_OF_PERICENTER": 159.393, "MEAN_ANOMALY": 230.2536, "EPHEMERIS_TYPE": 0, "CLASSIFICATION_TYPE": "U", "NORAD_CAT_ID": 34058, "ELEMENT_SET_NO": 999, "REV_AT_EPOCH": 83247, "BSTAR": 0.00054782, "MEAN_MOTION_DOT": 5.87e-06, "MEAN_MOTION_DDOT": 0}, "tle": {"line1": "1 34058U 93036JV  25354.44664059  .00000587  00000+0  54782-3 0  9996", "line2": "2 34058  73.9314 165.6202 0377615 159.3930 230.2536 13.56087377832472"}}, "geometry": {"type": "Point", "coordinates": [-12.890055012406158, -6.561887491347985]}}, {"type": "Feature", "properties": {"norad_id": 34059, "name": "COSMOS 2251 DEB", "group": "cosmos-2251-debris", "lat": -56.941887598087234, "lon": 145.16879691360958, "alt_km": 714.4775891489171, "timestamp": "2025-12-20T16:47:36.678430+00:00", "meta": {"OBJECT_NAME": "COSMOS 2251 DEB", "OBJECT_ID": "1993-036JW", "EPOCH": "2025-12-20T12:15:12.270816", "MEAN_MOTION": 14.52988712, "ECCENTRICITY": 0.0018473, "INCLINATION": 74.0366, "RA_OF_ASC_NODE": 171.6165, "ARG_OF_PERICENTER": 248.1686, "MEAN_ANOMALY": 141.9557, "EPHEMERIS_TYPE": 0, "CLASSIFICATION_TYPE": "U", "NORAD_CAT_ID": 34059, "ELEMENT_SET_NO": 999, "REV_AT_EPOCH": 88572, "BSTAR": 0.00051286, "MEAN_MOTION_DOT": 2.093e-05, "MEAN_MOTION_DDOT": 0}, "tle": {"line1": "1 34059U 93036JW  25354.51055869  .00002093  00000+0  51286-3 0  9998", "line2": "2 34059  74.0366 171.6165 0018473 248.1686 141.9557 14.52988712885723"}}, "geometry": {"type": "Point", "coordinates": [145.16879691360958, -56.941887598087234]}}, {"type": "Feature", "properties": {"norad_id": 34061, "name": "COSMOS 2251 DEB", "group": "cosmos-2251-debris", "lat": -68.09895813073622, "lon": -156.7129443650704, "alt_km": 752.6641645447417, "timestamp": "2025-12-20T16:47:36.678440+00:00", "meta": {"OBJECT_NAME": "COSMOS 2251 DEB", "OBJECT_ID": "1993-036JY", "EPOCH": "2025-12-20T04:33:23.886720", "MEAN_MOTION": 14.40371831, "ECCENTRICITY": 0.00207756, "INCLINATION": 74.039, "RA_OF_ASC_NODE": 249.6184, "ARG_OF_PERICENTER": 325.425, "MEAN_ANOMALY": 197.1616, "EPHEMERIS_TYPE": 0, "CLASSIFICATION_TYPE": "U", "NORAD_CAT_ID": 34061, "ELEMENT_SET_NO": 999, "REV_AT_EPOCH": 88287, "BSTAR": 0.00021445275, "MEAN_MOTION_DOT": 6.56e-06, "MEAN_MOTION_DDOT": 0}, "tle": {"line1": "1 34061U 93036JY  25354.18985980  .00000656  00000+0  21445-3 0  9997", "line2": "2 34061  74.0390 249.6184 0020775 325.4250 197.1616 14.40371831882871"}}, "geometry": {"type": "Point", "coordinates": [-156.7129443650704, -68.09895813073622]}}, {"type": "Feature", "properties": {"norad_id": 34062, "name": "COSMOS 2251 DEB", "group": "cosmos-2251-debris", "lat": 61.486939102833844, "lon": 154.19406109856843, "alt_km": 661.802185987759, "timestamp": "2025-12-20T16:47:36.678450+00:00", "meta": {"OBJECT_NAME": "COSMOS 2251 DEB", "OBJECT_ID": "1993-036JZ", "EPOCH": "2025-12-20T10:15:22.938048", "MEAN_MOTION": 14.78948215, "ECCENTRICITY": 0.0073668, "INCLINATION": 74.0283, "RA_OF_ASC_NODE": 122.9131, "ARG_OF_PERICENTER": 200.4606, "MEAN_ANOMALY": 216.6506, "EPHEMERIS_TYPE": 0, "CLASSIFICATION_TYPE": "U", "NORAD_CAT_ID": 34062, "ELEMENT_SET_NO": 999, "REV_AT_EPOCH": 88709, "BSTAR": 0.0018746, "MEAN_MOTION_DOT": 0.00014476, "MEAN_MOTION_DDOT": 0}, "tle": {"line1": "1 34062U 93036JZ  25354.42734882  .00014476  00000+0  18746-2 0  9992", "line2": "2 34062  74.0283 122.9131 0073668 200.4606 216.6506 14.78948215887095"}}, "geometry": {"type": "Point", "coordinates": [154.19406109856843, 61.486939102833844]}}, {"type": "Feature", "properties": {"norad_id": 34064, "name": "COSMOS 2251 DEB", "group": "cosmos-2251-debris", "lat": -42.161576706073234, "lon": -118.92575038510122, "alt_km": 741.1213256942401, "timestamp": "2025-12-20T16:47:36.678460+00:00", "meta": {"OBJECT_NAME": "COSMOS 2251 DEB", "OBJECT_ID": "1993-036KB", "EPOCH": "2025-12-20T00:26:38.330880", "MEAN_MOTION": 14.42360778, "ECCENTRICITY": 0.00223166, "INCLINATION": 74.0321, "RA_OF_ASC_NODE": 257.3646, "ARG_OF_PERICENTER": 322.8704, "MEAN_ANOMALY": 57.099, "EPHEMERIS_TYPE": 0, "CLASSIFICATION_TYPE": "U", "NORAD_CAT_ID": 34064, "ELEMENT_SET_NO": 999, "REV_AT_EPOCH": 88247, "BSTAR": 0.00034430103, "MEAN_MOTION_DOT": 1.115e-05, "MEAN_MOTION_DDOT": 0}, "tle": {"line1": "1 34064U 93036KB  25354.01849920  .00001115  00000+0  34430-3 0  9994", "line2": "2 34064  74.0321 257.3646 0022316 322.8704  57.0990 14.42360778882470"}}, "geometry": {"type": "Point", "coordinates": [-118.92575038510122, -42.161576706073234]}}, {"type": "Feature", "properties": {"norad_id": 34065, "name": "COSMOS 2251 DEB", "group": "cosmos-2251-debris", "lat": -25.269341969282898, "lon": 71.22573018280492, "alt_km": 778.2831720381018, "timestamp": "2025-12-20T16:47:36.678469+00:00", "meta": {"OBJECT_NAME": "COSMOS 2251 DEB", "OBJECT_ID": "1993-036KC", "EPOCH": "2025-12-20T03:14:04.680960", "MEAN_MOTION": 14.38070126, "ECCENTRICITY": 0.00166771, "INCLINATION": 74.0353, "RA_OF_ASC_NODE": 244.4999, "ARG_OF_PERICENTER": 340.6993, "MEAN_ANOMALY": 182.0759, "EPHEMERIS_TYPE": 0, "CLASSIFICATION_TYPE": "U", "NORAD_CAT_ID": 34065, "ELEMENT_SET_NO": 999, "REV_AT_EPOCH": 88311, "BSTAR": 0.00012127045, "MEAN_MOTION_DOT": 3.41e-06, "MEAN_MOTION_DDOT": 0}, "tle": {"line1": "1 34065U 93036KC  25354.13477640  .00000341  00000+0  12127-3 0  9993", "line2": "2 34065  74.0353 244.4999 0016677 340.6993 182.0759 14.38070126883119"}}, "geometry": {"type": "Point", "coordinates": [71.22573018280492, -25.269341969282898]}}, {"type": "Feature", "properties": {"norad_id": 34070, "name": "COSMOS 2251 DEB", "group": "cosmos-2251-debris", "lat": 47.87233220318206, "lon": -97.87266513632298, "alt_km": 632.7635207420517, "timestamp": "2025-12-20T16:47:36.678479+00:00", "meta": {"OBJECT_NAME": "COSMOS 2251 DEB", "OBJECT_ID": "1993-036KH", "EPOCH": "2025-12-19T09:38:35.271168", "MEAN_MOTION": 14.77240347, "ECCENTRICITY": 0.0018293, "INCLINATION": 74.0006, "RA_OF_ASC_NODE": 103.1733, "ARG_OF_PERICENTER": 219.8397, "MEAN_ANOMALY": 210.1156, "EPHEMERIS_TYPE": 0, "CLASSIFICATION_TYPE": "U", "NORAD_CAT_ID": 34070, "ELEMENT_SET_NO": 999, "REV_AT_EPOCH": 88709, "BSTAR": 0.0016819, "MEAN_MOTION_DOT": 0.00011943, "MEAN_MOTION_DDOT": 0}, "tle": {"line1": "1 34070U 93036KH  25353.40179712  .00011943  00000+0  16819-2 0  9998", "line2": "2 34070  74.0006 103.1733 0018293 219.8397 210.1156 14.77240347887090"}}, "geometry": {"type": "Point", "coordinates": [-97.87266513632298, 47.87233220318206]}}, {"type": "Feature", "properties": {"norad_id": 34114, "name": "COSMOS 2251 DEB", "group": "cosmos-2251-debris", "lat": 68.35438481398549, "lon": 162.67463997626038, "alt_km": 693.9633964284549, "timestamp": "2025-12-20T16:47:36.678489+00:00", "meta": {"OBJECT_NAME": "COSMOS 2251 DEB", "OBJECT_ID": "1993-036KK", "EPOCH": "2025-12-20T01:35:50.405568", "MEAN_MOTION": 14.56466979, "ECCENTRICITY": 0.0047777, "INCLINATION": 74.0587, "RA_OF_ASC_NODE": 29.9479, "ARG_OF_PERICENTER": 22.0397, "MEAN_ANOMALY": 3.6603, "EPHEMERIS_TYPE": 0, "CLASSIFICATION_TYPE": "U", "NORAD_CAT_ID": 34114, "ELEMENT_SET_NO": 999, "REV_AT_EPOCH": 87908, "BSTAR": 0.00097770752, "MEAN_MOTION_DOT": 4.386e-05, "MEAN_MOTION_DDOT": 0}, "tle": {"line1": "1 34114U 93036KK  25354.06655562  .00004386  00000+0  97771-3 0  9992", "line2": "2 34114  74.0587  29.9479 0047777  22.0397   3.6603 14.56466979879088"}}, "geometry": {"type": "Point", "coordinates": [162.67463997626038, 68.35438481398549]}}, {"type": "Feature", "properties": {"norad_id": 34115, "name": "COSMOS 2251 DEB", "group": "cosmos-2251-debris", "lat": 19.893385950768444, "lon": 40.289059399251954, "alt_km": 637.8392283359972, "timestamp": "2025-12-20T16:47:36.678499+00:00", "meta": {"OBJECT_NAME": "COSMOS 2251 DEB", "OBJECT_ID": "1993-036KL", "EPOCH": "2025-12-20T09:35:17.048832", "MEAN_MOTION": 14.7958247, "ECCENTRICITY": 0.0028836, "INCLINATION": 74.0058, "RA_OF_ASC_NODE": 226.8385, "ARG_OF_PERICENTER": 48.0451, "MEAN_ANOMALY": 312.3174, "EPHEMERIS_TYPE": 0, "CLASSIFICATION_TYPE": "U", "NORAD_CAT_ID": 34115, "ELEMENT_SET_NO": 999, "REV_AT_EPOCH": 89525, "BSTAR": 0.00056619, "MEAN_MOTION_DOT": 4.239e-05, "MEAN_MOTION_DDOT": 0}, "tle": {"line1": "1 34115U 93036KL  25354.39950288  .00004239  00000+0  56619-3 0  9995", "line2": "2 34115  74.0058 226.8385 0028836  48.0451 312.3174 14.79582470895250"}}, "geometry": {"type": "Point", "coordinates": [40.289059399251954, 19.893385950768444]}}, {"type": "Feature", "properties": {"norad_id": 34116, "name": "COSMOS 2251 DEB", "group": "cosmos-2251-debris", "lat": 72.24931384035382, "lon": -128.855564556789, "alt_km": 716.4951446068671, "timestamp": "2025-12-20T16:47:36.678510+00:00", "meta": {"OBJECT_NAME": "COSMOS 2251 DEB", "OBJECT_ID": "1993-036KM", "EPOCH": "2025-12-19T22:56:32.433216", "MEAN_MOTION": 14.53014921, "ECCENTRICITY": 0.00118754, "INCLINATION": 74.0394, "RA_OF_ASC_NODE": 169.1645, "ARG_OF_PERICENTER": 245.3094, "MEAN_ANOMALY": 267.7782, "EPHEMERIS_TYPE": 0, "CLASSIFICATION_TYPE": "U", "NORAD_CAT_ID": 34116, "ELEMENT_SET_NO": 999, "REV_AT_EPOCH": 88591, "BSTAR": 0.00053046102, "MEAN_MOTION_DOT": 2.164e-05, "MEAN_MOTION_DDOT": 0}, "tle": {"line1": "1 34116U 93036KM  25353.95593094  .00002164  00000+0  53046-3 0  9991", "line2": "2 34116  74.0394 169.1645 0011875 245.3094 267.7782 14.53014921885915"}}, "geometry": {"type": "Point", "coordinates": [-128.855564556789, 72.24931384035382]}}]}